STARLINK-2068           
1 47722U 21017A   22286.98962719  .00009033  00000+0  62440-3 0  9997
2 47722  53.0558  15.5505 0001791  57.3414 302.7747 15.06407118 90005
STARLINK-2107           
1 47723U 21017B   22287.06378111  .00001491  00000+0  11899-3 0  9997
2 47723  53.0559 309.9944 0001657  65.9259 294.1904 15.06400411 90926
STARLINK-2116           
1 47724U 21017C   22287.23331856 -.00005258  00000+0 -33406-3 0  9997
2 47724  53.0556 309.2317 0001980  39.1638 320.9494 15.06425755 90946
STARLINK-2125           
1 47725U 21017D   22286.67029692  .00004121  00000+0  29544-3 0  9991
2 47725  53.0577  21.7597 0001969  26.2055 333.9034 15.06398685 90511
STARLINK-2126           
1 47726U 21017E   22287.25268293  .00003957  00000+0  28446-3 0  9995
2 47726  53.0572  19.1407 0001729  51.5191 308.5953 15.06389594 89979
STARLINK-2129           
1 47727U 21017F   22286.73939135  .00005719  00000+0  40246-3 0  9998
2 47727  53.0531 301.4535 0002012  41.7751 318.3391 15.06407087 91676
STARLINK-2131           
1 47728U 21017G   22286.43071770  .00003446  00000+0  25020-3 0  9996
2 47728  53.0557  22.8252 0001469  63.6273 296.4867 15.06385368 90537
STARLINK-2132           
1 47729U 21017H   22286.59246627  .00010383  00000+0  71467-3 0  9993
2 47729  53.0544 327.3110 0002010  56.2142 303.9038 15.06411326 91265
STARLINK-2140           
1 47730U 21017J   22287.11676578  .00001122  00000+0  94244-4 0  9996
2 47730  53.0558  34.7528 0001914  52.4468 307.6695 15.06392665 89749
STARLINK-2141           
1 47731U 21017K   22286.59198045  .00009947  00000+0  68551-3 0  9990
2 47731  53.0558  32.1102 0001664  53.3082 306.8059 15.06410211 90378
STARLINK-2142           
1 47732U 21017L   22287.02925048  .00005177  00000+0  36609-3 0  9991
2 47732  53.0540 305.3891 0001812  50.2174 309.8974 15.06411310 90980
STARLINK-2143           
1 47733U 21017M   22287.04442034  .00002821  00000+0  20817-3 0  9990
2 47733  53.0569  40.0761 0001614  69.8615 290.2548 15.06405763 89665
STARLINK-2144           
1 47734U 21017N   22287.13012151  .00005153  00000+0  36451-3 0  9996
2 47734  53.0554  29.6916 0001649  73.6256 286.4914 15.06406603 89812
STARLINK-2146           
1 47735U 21017P   22286.81455037  .00007088  00000+0  49474-3 0  9993
2 47735  53.0554 316.2767 0002330  45.7597 314.3583 15.06361979 91449
STARLINK-2147           
1 47736U 21017Q   22286.63343851  .00003061  00000+0  22434-3 0  9998
2 47736  53.0559  21.9222 0001920  44.4019 315.7123 15.06389788 89888
STARLINK-2148           
1 47737U 21017R   22286.71027000  .00007561  00000+0  25235-3 0  9994
2 47737  53.0542 277.2280 0002298  53.3287 306.7924 15.32060604 92049
STARLINK-2149           
1 47738U 21017S   22287.00576604  .00013058  00000+0  89472-3 0  9998
2 47738  53.0558  20.5054 0001691  56.0791 304.0358 15.06365466 89932
STARLINK-2150           
1 47739U 21017T   22286.76198728  .00001989  00000+0  15246-3 0  9996
2 47739  53.0561  46.3477 0001391  71.9177 288.1963 15.06388615 90233
STARLINK-2152           
1 47740U 21017U   22287.00848434  .00004637  00000+0  32993-3 0  9993
2 47740  53.0561  30.2411 0001773  54.0881 306.0272 15.06405499 89795
STARLINK-2154           
1 47741U 21017V   22287.02321854  .00001289  00000+0  10542-3 0  9994
2 47741  53.0553  30.1750 0001182  85.4604 274.6520 15.06405498 89804
STARLINK-2156           
1 47742U 21017W   22286.43809716  .00000748  00000+0  69125-4 0  9998
2 47742  53.0565  22.7949 0001843  47.4264 312.6880 15.06381278 90532
STARLINK-2157           
1 47743U 21017X   22286.46389206  .00003420  00000+0  24847-3 0  9990
2 47743  53.0555  22.6861 0002232  37.1018 323.0125 15.06391089 90517
STARLINK-2158           
1 47744U 21017Y   22286.96790817  .00003144  00000+0  22984-3 0  9993
2 47744  53.0574  20.3649 0001691  56.3946 303.7204 15.06402012 89935
STARLINK-2159           
1 47745U 21017Z   22286.60303716  .00001610  00000+0  12695-3 0  9997
2 47745  53.0557  32.0437 0001620  64.0016 296.1139 15.06393698 90368
STARLINK-2160           
1 47746U 21017AA  22286.99374570  .00001207  00000+0  99920-4 0  9995
2 47746  53.0546  30.3061 0001908  50.4957 309.6201 15.06398026 89798
STARLINK-2161           
1 47747U 21017AB  22286.99096969 -.00001191  00000+0 -61043-4 0  9998
2 47747  53.0549  20.3003 0001734  46.2453 313.8679 15.06402007 89935
STARLINK-2162           
1 47748U 21017AC  22286.78456488  .00011604  00000+0  79635-3 0  9995
2 47748  53.0549  21.2321 0002046  43.4501 316.6649 15.06412102 90532
STARLINK-2163           
1 47749U 21017AD  22286.99834770  .00003762  00000+0  27141-3 0  9994
2 47749  53.0551  20.2765 0001078  73.4940 286.6167 15.06387380 89933
STARLINK-2164           
1 47750U 21017AE  22286.77719137  .00005919  00000+0  41580-3 0  9990
2 47750  53.0545  21.2620 0001981  52.4211 307.6958 15.06413243 90538
STARLINK-2168           
1 47751U 21017AF  22287.07299706  .00000131  00000+0  27736-4 0  9999
2 47751  53.0566   9.9447 0002047  47.5546 312.5616 15.06393052 90083
STARLINK-2169           
1 47752U 21017AG  22286.57585000  .00000683  00000+0  64747-4 0  9994
2 47752  53.0571  27.1715 0001250  93.1283 266.9849 15.06378839 90480
STARLINK-2170           
1 47753U 21017AH  22287.01585360  .00003796  00000+0  27356-3 0  9996
2 47753  53.0545  30.2081 0001701  55.0198 305.0951 15.06409336 89794
STARLINK-2171           
1 47754U 21017AJ  22286.45558608  .00006072  00000+0  42612-3 0  9991
2 47754  53.0541  32.7176 0001769  53.8649 306.2503 15.06406065 90350
STARLINK-2174           
1 47756U 21017AL  22286.98268204  .00001415  00000+0  11391-3 0  9997
2 47756  53.0573  30.3552 0001941  53.2628 306.8539 15.06399076 89796
STARLINK-2175           
1 47757U 21017AM  22286.56986696  .00009662  00000+0  66665-3 0  9990
2 47757  53.0543  32.1947 0001874  57.8258 302.2913 15.06401410 90352
STARLINK-2178           
1 47760U 21017AQ  22286.60211676  .00000110  00000+0  26297-4 0  9995
2 47760  53.0554  42.0613 0001463  66.8385 293.2758 15.06386880 90251
STARLINK-2179           
1 47761U 21017AR  22286.56617908  .00011158  00000+0  76650-3 0  9990
2 47761  53.0549  32.2192 0001315  87.9001 272.2138 15.06414345 90363
STARLINK-2180           
1 47762U 21017AS  22286.45973726  .00003917  00000+0  28174-3 0  9994
2 47762  53.0526  47.7128 0002339  98.3480 261.7775 15.06397529 90154
STARLINK-2181           
1 47763U 21017AT  22287.00618210  .00003923  00000+0  28211-3 0  9990
2 47763  53.0545  35.2447 0001754  53.7906 306.3245 15.06402987 89724
STARLINK-2182           
1 47764U 21017AU  22286.64403793  .00002007  00000+0  15360-3 0  9991
2 47764  53.0554  46.8725 0001309  59.9961 300.1158 15.06394266 90218
STARLINK-2184           
1 47766U 21017AW  22287.05960360  .00003524  00000+0  25539-3 0  9991
2 47766  53.0558  44.9960 0001637  43.2691 316.8426 15.06398538 89591
STARLINK-2185           
1 47767U 21017AX  22286.68781412  .00010688  00000+0  73521-3 0  9992
2 47767  53.0555  31.6759 0001575  59.2722 300.8422 15.06407445 90433
STARLINK-2189           
1 47768U 21017AY  22287.12694732  .00002069  00000+0  15772-3 0  9999
2 47768  53.0560  45.1013 0001493  59.2478 300.8658 15.06403767 89601
STARLINK-2192           
1 47769U 21017AZ  22286.60488439  .00002097  00000+0  15971-3 0  9999
2 47769  53.0552  12.0568 0001715  47.3311 312.7822 15.06384171 90695
STARLINK-2193           
1 47770U 21017BA  22287.01078329  .00003923  00000+0  28208-3 0  9996
2 47770  53.0555  25.2070 0001609  57.4908 302.6237 15.06405114 89866
STARLINK-2194           
1 47771U 21017BB  22286.69011481  .00001781  00000+0  13850-3 0  9993
2 47771  53.0568  26.6711 0001883  51.1552 308.9605 15.06386815 90482
STARLINK-2195           
1 47772U 21017BC  22286.81222584  .00001569  00000+0  12428-3 0  9990
2 47772  53.0563  41.1199 0001342  74.6700 285.4437 15.06374478 90265
STARLINK-2196           
1 47773U 21017BD  22286.60948520  .00002680  00000+0  19881-3 0  9998
2 47773  53.0556  42.0264 0001558  59.2523 300.8619 15.06392298 90222
STARLINK-2197           
1 47774U 21017BE  22287.13656697  .00004024  00000+0  28881-3 0  9993
2 47774  53.0545  39.6618 0001514  61.9798 298.1344 15.06407704 89672
STARLINK-2198           
1 47775U 21017BF  22286.81589562  .00002941  00000+0  21629-3 0  9993
2 47775  53.0558  41.0947 0001568  55.5937 304.5200 15.06397411 90311
STARLINK-2209           
1 47776U 21017BG  22286.57723276  .00005679  00000+0  39980-3 0  9999
2 47776  53.0567  32.1768 0001644  63.6017 296.5140 15.06402217 89736
STARLINK-2210           
1 47777U 21017BH  22287.11168729 -.00000688  00000+0 -27259-4 0  9991
2 47777  53.0547  29.7754 0002050  46.4354 313.6805 15.06416643 89813
STARLINK-2211           
1 47778U 21017BJ  22287.01217611  .00001041  00000+0  88760-4 0  9992
2 47778  53.0567  30.2135 0001451  69.0689 291.0455 15.06391849 89801
STARLINK-2212           
1 47779U 21017BK  22286.96016575  .00014110  00000+0  82049-3 0  9996
2 47779  53.0561  14.4413 0002299  46.2488 313.8694 15.12325422 90029
STARLINK-2213           
1 47780U 21017BL  22286.44085377  .00005941  00000+0  41738-3 0  9999
2 47780  53.0565  32.7707 0001394  67.5537 292.5599 15.06402990 90396
STARLINK-2223           
1 47781U 21017BM  22287.00480420  .00006661  00000+0  46556-3 0  9994
2 47781  53.0562  30.2394 0001614  63.2358 296.8796 15.06405420 89797
